{
  "type": "FeatureCollection",
  "features": [
    {
      "type": "Feature",
      "properties": {
        "norad_id": 30838,
        "name": "FENGYUN 1C DEB",
        "group": "fengyun-1c-debris",
        "lat": 59.14581948694191,
        "lon": 106.98206157751214,
        "alt_km": 702.0999361525592,
        "timestamp": "2025-12-22T22:44:21.254502+00:00",
        "meta_object_name": "FENGYUN 1C DEB",
        "meta_object_id": "1999-025AVY",
        "meta_epoch": "2025-12-22T10:34:49.738080",
        "meta_mean_motion": 14.47890794,
        "meta_eccentricity": 0.0034902,
        "meta_inclination": 99.0431,
        "meta_ra_of_asc_node": 270.9793,
        "meta_arg_of_pericenter": 127.7568,
        "meta_mean_anomaly": 232.6794,
        "meta_ephemeris_type": 0,
        "meta_classification_type": "U",
        "meta_norad_cat_id": 30838,
        "meta_element_set_no": 999,
        "meta_rev_at_epoch": 97454,
        "meta_bstar": 0.0026818994,
        "meta_mean_motion_dot": 9.976e-05,
        "meta_mean_motion_ddot": 0,
        "tle_line1": "1 30838U 99025AVY 25356.44085345  .00009976  00000+0  26819-2 0  9999",
        "tle_line2": "2 30838  99.0431 270.9793 0034902 127.7568 232.6794 14.47890794974546"
      },
      "geometry": {
        "type": "Point",
        "coordinates": [
          106.98206157751214,
          59.14581948694191
        ]
      }
    },
    {
      "type": "Feature",
      "properties": {
        "norad_id": 30840,
        "name": "FENGYUN 1C DEB",
        "group": "fengyun-1c-debris",
        "lat": 14.187443319701377,
        "lon": 5.9477977603927785,
        "alt_km": 564.9949956182991,
        "timestamp": "2025-12-22T22:44:21.254513+00:00",
        "meta_object_name": "FENGYUN 1C DEB",
        "meta_object_id": "1999-025AWA",
        "meta_epoch": "2025-12-21T18:44:16.569312",
        "meta_mean_motion": 14.61189919,
        "meta_eccentricity": 0.02168246,
        "meta_inclination": 98.022,
        "meta_ra_of_asc_node": 6.8589,
        "meta_arg_of_pericenter": 342.2186,
        "meta_mean_anomaly": 17.1509,
        "meta_ephemeris_type": 0,
        "meta_classification_type": "U",
        "meta_norad_cat_id": 30840,
        "meta_element_set_no": 999,
        "meta_rev_at_epoch": 73263,
        "meta_bstar": 0.00063674912,
        "meta_mean_motion_dot": 4.327e-05,
        "meta_mean_motion_ddot": 0,
        "tle_line1": "1 30840U 99025AWA 25355.78074733  .00004327  00000+0  63675-3 0  9994",
        "tle_line2": "2 30840  98.0220   6.8589 0216824 342.2186  17.1509 14.61189919732636"
      },
      "geometry": {
        "type": "Point",
        "coordinates": [
          5.9477977603927785,
          14.187443319701377
        ]
      }
    },
    {
      "type": "Feature",
      "properties": {
        "norad_id": 30843,
        "name": "FENGYUN 1C DEB",
        "group": "fengyun-1c-debris",
        "lat": -62.16177931453681,
        "lon": -128.02300411458052,
        "alt_km": 819.8249944309764,
        "timestamp": "2025-12-22T22:44:21.254523+00:00",
        "meta_object_name": "FENGYUN 1C DEB",
        "meta_object_id": "1999-025AWD",
        "meta_epoch": "2025-12-21T15:52:25.519872",
        "meta_mean_motion": 14.52488182,
        "meta_eccentricity": 0.0148945,
        "meta_inclination": 98.8413,
        "meta_ra_of_asc_node": 67.7641,
        "meta_arg_of_pericenter": 92.7919,
        "meta_mean_anomaly": 269.0332,
        "meta_ephemeris_type": 0,
        "meta_classification_type": "U",
        "meta_norad_cat_id": 30843,
        "meta_element_set_no": 999,
        "meta_rev_at_epoch": 99454,
        "meta_bstar": 0.00011001254,
        "meta_mean_motion_dot": 4.62e-06,
        "meta_mean_motion_ddot": 0,
        "tle_line1": "1 30843U 99025AWD 25355.66140648  .00000462  00000+0  11001-3 0  9995",
        "tle_line2": "2 30843  98.8413  67.7641 0148945  92.7919 269.0332 14.52488182994541"
      },
      "geometry": {
        "type": "Point",
        "coordinates": [
          -128.02300411458052,
          -62.16177931453681
        ]
      }
    },
    {
      "type": "Feature",
      "properties": {
        "norad_id": 30845,
        "name": "FENGYUN 1C DEB",
        "group": "fengyun-1c-debris",
        "lat": -80.16435012529146,
        "lon": 54.54510296866742,
        "alt_km": 862.3890198154713,
        "timestamp": "2025-12-22T22:44:21.254534+00:00",
        "meta_object_name": "FENGYUN 1C DEB",
        "meta_object_id": "1999-025AWF",
        "meta_epoch": "2025-12-21T18:21:33.686208",
        "meta_mean_motion": 13.76864531,
        "meta_eccentricity": 0.01921106,
        "meta_inclination": 98.379,
        "meta_ra_of_asc_node": 355.2796,
        "meta_arg_of_pericenter": 245.9079,
        "meta_mean_anomaly": 290.0104,
        "meta_ephemeris_type": 0,
        "meta_classification_type": "U",
        "meta_norad_cat_id": 30845,
        "meta_element_set_no": 999,
        "meta_rev_at_epoch": 94367,
        "meta_bstar": 0.00027550575,
        "meta_mean_motion_dot": 2.73e-06,
        "meta_mean_motion_ddot": 0,
        "tle_line1": "1 30845U 99025AWF 25355.76497322  .00000273  00000+0  27551-3 0  9999",
        "tle_line2": "2 30845  98.3790 355.2796 0192110 245.9079 290.0104 13.76864531943674"
      },
      "geometry": {
        "type": "Point",
        "coordinates": [
          54.54510296866742,
          -80.16435012529146
        ]
      }
    },
    {
      "type": "Feature",
      "properties": {
        "norad_id": 30846,
        "name": "FENGYUN 1C DEB",
        "group": "fengyun-1c-debris",
        "lat": -12.730111466372723,
        "lon": 173.2092881553254,
        "alt_km": 728.4679421640094,
        "timestamp": "2025-12-22T22:44:21.254544+00:00",
        "meta_object_name": "FENGYUN 1C DEB",
        "meta_object_id": "1999-025AWG",
        "meta_epoch": "2025-12-22T11:23:43.135584",
        "meta_mean_motion": 14.4158833,
        "meta_eccentricity": 0.00539014,
        "meta_inclination": 99.3213,
        "meta_ra_of_asc_node": 170.5675,
        "meta_arg_of_pericenter": 307.8249,
        "meta_mean_anomaly": 107.3804,
        "meta_ephemeris_type": 0,
        "meta_classification_type": "U",
        "meta_norad_cat_id": 30846,
        "meta_element_set_no": 999,
        "meta_rev_at_epoch": 98070,
        "meta_bstar": 0.00068476604,
        "meta_mean_motion_dot": 2.214e-05,
        "meta_mean_motion_ddot": 0,
        "tle_line1": "1 30846U 99025AWG 25356.47480481  .00002214  00000+0  68477-3 0  9996",
        "tle_line2": "2 30846  99.3213 170.5675 0053901 307.8249 107.3804 14.41588330980706"
      },
      "geometry": {
        "type": "Point",
        "coordinates": [
          173.2092881553254,
          -12.730111466372723
        ]
      }
    },
    {
      "type": "Feature",
      "properties": {
        "norad_id": 30847,
        "name": "FENGYUN 1C DEB",
        "group": "fengyun-1c-debris",
        "lat": -57.05279302702913,
        "lon": -36.79820207440669,
        "alt_km": 818.8275115724218,
        "timestamp": "2025-12-22T22:44:21.254555+00:00",
        "meta_object_name": "FENGYUN 1C DEB",
        "meta_object_id": "1999-025AWH",
        "meta_epoch": "2025-12-21T22:37:45.250176",
        "meta_mean_motion": 14.17084709,
        "meta_eccentricity": 0.00656938,
        "meta_inclination": 98.7319,
        "meta_ra_of_asc_node": 155.9331,
        "meta_arg_of_pericenter": 301.6261,
        "meta_mean_anomaly": 215.0452,
        "meta_ephemeris_type": 0,
        "meta_classification_type": "U",
        "meta_norad_cat_id": 30847,
        "meta_element_set_no": 999,
        "meta_rev_at_epoch": 96185,
        "meta_bstar": 0.0017369238,
        "meta_mean_motion_dot": 3.528e-05,
        "meta_mean_motion_ddot": 0,
        "tle_line1": "1 30847U 99025AWH 25355.94288484  .00003528  00000+0  17369-2 0  9999",
        "tle_line2": "2 30847  98.7319 155.9331 0065693 301.6261 215.0452 14.17084709961855"
      },
      "geometry": {
        "type": "Point",
        "coordinates": [
          -36.79820207440669,
          -57.05279302702913
        ]
      }
    },
    {
      "type": "Feature",
      "properties": {
        "norad_id": 30848,
        "name": "FENGYUN 1C DEB",
        "group": "fengyun-1c-debris",
        "lat": -76.42537045600865,
        "lon": -29.072255029667676,
        "alt_km": 762.3254703363809,
        "timestamp": "2025-12-22T22:44:21.254565+00:00",
        "meta_object_name": "FENGYUN 1C DEB",
        "meta_object_id": "1999-025AWJ",
        "meta_epoch": "2025-12-21T12:02:56.456448",
        "meta_mean_motion": 14.3453459,
        "meta_eccentricity": 0.00434643,
        "meta_inclination": 99.057,
        "meta_ra_of_asc_node": 190.7595,
        "meta_arg_of_pericenter": 310.3453,
        "meta_mean_anomaly": 49.3938,
        "meta_ephemeris_type": 0,
        "meta_classification_type": "U",
        "meta_norad_cat_id": 30848,
        "meta_element_set_no": 999,
        "meta_rev_at_epoch": 97432,
        "meta_bstar": 0.00089668848,
        "meta_mean_motion_dot": 2.509e-05,
        "meta_mean_motion_ddot": 0,
        "tle_line1": "1 30848U 99025AWJ 25355.50204232  .00002509  00000+0  89669-3 0  9992",
        "tle_line2": "2 30848  99.0570 190.7595 0043464 310.3453  49.3938 14.34534590974320"
      },
      "geometry": {
        "type": "Point",
        "coordinates": [
          -29.072255029667676,
          -76.42537045600865
        ]
      }
    }
  ]
}